STARLINK-2191_new
1 18565C 21041N   21326.13592596 -.00014013  00000-0 -93909-3 0  3268
2 18565  53.0557 333.1389 0001502  59.0577  48.3084 15.06405375    10
STARLINK-2191_old
1 28565C 21041N   21325.14027455 -.00000755  00000-0 -50590-4 0  3252
2 28565  53.0556 337.6086 0001577  61.2760  43.6192 15.06405106    13
